ONEWEB-0271             
1 48989U 21060Y   25163.74963666  .00000115  00000+0  26750-3 0  9990
2 48989  87.9044 302.4012 0001930 108.5948 251.5393 13.16595096191051
ONEWEB-0272             
1 48990U 21060Z   25163.77178385  .00000019  00000+0  17321-4 0  9999
2 48990  87.9045 302.4283 0001925 106.5315 253.6027 13.16595674191008
ONEWEB-0273             
1 48991U 21060AA  25163.79395489 -.00000157  00000+0 -44500-3 0  9991
2 48991  87.9038 302.4085 0002012 102.3810 257.7546 13.16594709190988
ONEWEB-0274             
1 48992U 21060AB  25163.81928712 -.00000001  00000+0 -35267-4 0  9995
2 48992  87.9039 302.4396 0001484 106.5661 253.5633 13.16593600191023
ONEWEB-0275             
1 48993U 21060AC  25163.80821888 -.00000019  00000+0 -82395-4 0  9994
2 48993  87.9048 302.4012 0001881 104.8459 255.2880 13.16594594190953
ONEWEB-0276             
1 48994U 21060AD  25163.84145424 -.00000001  00000+0 -35414-4 0  9995
2 48994  87.9045 302.3909 0002085 103.5770 256.5594 13.16593409190976
ONEWEB-0277             
1 48995U 21060AE  25163.77811428 -.00000031  00000+0 -11403-3 0  9996
2 48995  87.9043 302.4395 0001982 112.0507 248.0834 13.16595867190954
ONEWEB-0278             
1 48996U 21060AF  25163.84461944 -.00000021  00000+0 -89496-4 0  9996
2 48996  87.9047 302.3871 0002070  94.7902 265.3465 13.16595771191093
ONEWEB-0279             
1 48997U 21060AG  25163.77653186  .00000010  00000+0 -85829-5 0  9994
2 48997  87.9044 302.3966 0001824 110.1124 250.0203 13.16592759191017
ONEWEB-0280             
1 48998U 21060AH  25163.79157845 -.00000053  00000+0 -17148-3 0  9993
2 48998  87.9042 302.3997 0002212 102.8345 257.3033 13.16593349190954
ONEWEB-0281             
1 48999U 21060AJ  25163.79713617 -.00000003  00000+0 -41707-4 0  9993
2 48999  87.9045 302.3971 0001704  97.9770 262.1554 13.16595188191025
ONEWEB-0282             
1 49000U 21060AK  25163.82719826  .00000051  00000+0  10049-3 0  9994
2 49000  87.9037 302.4047 0001998 103.7609 256.3745 13.16592679191004
ONEWEB-0283             
1 49001U 21060AL  25163.81612633  .00000029  00000+0  41966-4 0  9990
2 49001  87.9037 302.4110 0001895 107.4068 252.7270 13.16596052191015
ONEWEB-0284             
1 49002U 21060AM  25163.80977510 -.00000291  00000+0 -79554-3 0  9994
2 49002  87.9049 302.3793 0002159  94.0863 266.0514 13.16593316190998
ONEWEB-0285             
1 49075U 21075A   25163.76747590 -.00000040  00000+0 -14663-3 0  9990
2 49075  87.8886  64.1387 0001946  77.9974 282.1373 13.12443475186751
ONEWEB-0286             
1 49076U 21075B   25163.74936163 -.00000341  00000+0 -98204-3 0  9992
2 49076  87.8909  64.1599 0001845  73.0011 287.1320 13.12442978186103
ONEWEB-0287             
1 49077U 21075C   25163.81311171  .00000097  00000+0  21643-3 0  9996
2 49077  87.9069  79.4012 0002102  67.1344 293.0010 13.17651758184980
ONEWEB-0288             
1 49078U 21075D   25163.95387142  .00000273  00000+0  72445-3 0  9995
2 49078  87.8883  64.0954 0002030  76.1431 283.9923 13.12440711186754
ONEWEB-0289             
1 49079U 21075E   25163.76587150  .00000054  00000+0  10478-3 0  9991
2 49079  87.9071  79.4425 0002447  82.0177 278.1233 13.17650385185555
ONEWEB-0290             
1 49080U 21075F   25163.82493759  .00000069  00000+0  14457-3 0  9998
2 49080  87.9068  79.3865 0002501  88.7593 271.3825 13.17648006184970
ONEWEB-0291             
1 49081U 21075G   25163.80974421  .00000094  00000+0  20975-3 0  9997
2 49081  87.9063  79.3928 0002164  75.2449 284.8922 13.17647547184967
ONEWEB-0293             
1 49082U 21075H   25163.75912271  .00000057  00000+0  11282-3 0  9997
2 49082  87.9071  79.4351 0002089  80.3660 279.7707 13.17647670184989
ONEWEB-0294             
1 49083U 21075J   25163.96035791  .00000029  00000+0  45268-4 0  9995
2 49083  87.8884  64.0935 0002403  80.6217 279.5183 13.12441948186141
ONEWEB-0295             
1 49084U 21075K   25163.75828023  .00000039  00000+0  68236-4 0  9992
2 49084  87.9084  79.4284 0002197  70.2059 289.9310 13.17648397184946
ONEWEB-0296             
1 49085U 21075L   25163.71218411  .00000431  00000+0  11638-2 0  9991
2 49085  87.8886  64.1512 0002417  68.8834 291.2553 13.12442200186116
ONEWEB-0297             
1 49086U 21075M   25163.74299260 -.00000363  00000+0 -10447-2 0  9999
2 49086  87.8891  64.1787 0001860  75.1417 284.9917 13.12440652186725
ONEWEB-0298             
1 49087U 21075N   25163.76263596  .00000036  00000+0  58416-4 0  9990
2 49087  87.9071  79.4322 0001849  73.0515 287.0819 13.17649856184976
ONEWEB-0299             
1 49088U 21075P   25163.76417431  .00000036  00000+0  59107-4 0  9998
2 49088  87.9067  79.3857 0001906  72.2273 287.9066 13.17650707184958
ONEWEB-0300             
1 49089U 21075Q   25163.96359855 -.00000043  00000+0 -15488-3 0  9999
2 49089  87.8883  64.0912 0001557  80.9008 279.2297 13.12440727186777
ONEWEB-0301             
1 49090U 21075R   25163.94738514  .00000410  00000+0  11035-2 0  9991
2 49090  87.8884  64.1004 0001439  83.3452 276.7840 13.12442727186130
ONEWEB-0302             
1 49091U 21075S   25163.78192748  .00000352  00000+0  94305-3 0  9994
2 49091  87.8885  64.1345 0002279  78.0146 282.1238 13.12444835186093
ONEWEB-0304             
1 49092U 21075T   25163.81481027  .00000033  00000+0  51830-4 0  9993
2 49092  87.9070  79.4054 0002009  74.6811 285.4543 13.17648325184930
ONEWEB-0305             
1 49093U 21075U   25163.80806088 -.00000038  00000+0 -13002-3 0  9996
2 49093  87.9065  79.3840 0002051  66.5075 293.6272 13.17649162184969
ONEWEB-0308             
1 49094U 21075V   25163.77544135  .00000223  00000+0  58366-3 0  9991
2 49094  87.8885  64.1308 0001856  79.2760 280.8578 13.12443605186108
ONEWEB-0309             
1 49095U 21075W   25163.81145247 -.00000011  00000+0 -60248-4 0  9998
2 49095  87.9071  79.3998 0002421  80.3933 279.7471 13.17649902184935
ONEWEB-0310             
1 49096U 21075X   25163.79003774  .00000515  00000+0  13962-2 0  9990
2 49096  87.8891  64.1691 0002007  79.0179 281.1176 13.12442179186735
ONEWEB-0311             
1 49097U 21075Y   25163.81818451  .00000037  00000+0  61075-4 0  9999
2 49097  87.9070  79.4000 0001972  66.1216 294.0122 13.17650941184980
ONEWEB-0312             
1 49098U 21075Z   25163.83337097  .00000125  00000+0  28943-3 0  9998
2 49098  87.9070  79.4276 0002266  71.2544 288.8834 13.17651520184967
ONEWEB-0313             
1 49099U 21075AA  25163.83828823  .00000107  00000+0  24165-3 0  9993
2 49099  87.9072  79.4424 0001838  75.6014 284.5321 13.17651073184955
ONEWEB-0314             
1 49100U 21075AB  25163.80468731  .00000059  00000+0  11856-3 0  9990
2 49100  87.9065  79.3807 0002238  70.0930 290.0442 13.17649708184920
ONEWEB-0315             
1 49101U 21075AC  25163.76407504 -.00000208  00000+0 -61364-3 0  9994
2 49101  87.8881  64.1230 0001710  67.4983 292.6327 13.12442348186715
ONEWEB-0316             
1 49102U 21075AD  25163.94445772  .00000037  00000+0  60231-4 0  9995
2 49102  87.9149  48.8462 0001745  74.3847 285.7477 13.18688080188547
ONEWEB-0317             
1 49103U 21075AE  25163.75761011 -.00000319  00000+0 -92218-3 0  9996
2 49103  87.8887  64.1394 0002395  94.1208 266.0194 13.12437426186731
ONEWEB-0318             
1 49104U 21075AF  25163.94131320 -.00000011  00000+0 -60333-4 0  9995
2 49104  87.9151  48.8323 0001733  71.9978 288.1343 13.18686272188509
ONEWEB-0319             
1 49105U 21075AG  25163.81987255  .00000084  00000+0  18277-3 0  9995
2 49105  87.9069  79.4243 0001959  65.2737 294.8598 13.17647939184966
ONEWEB-0323             
1 49106U 21075AH  25163.74785729 -.00000388  00000+0 -11153-2 0  9994
2 49106  87.8882  64.1272 0001980  56.5985 303.5332 13.12440927186097
ONEWEB-0329             
1 49107U 21075AJ  25163.82830455  .00000172  00000+0  40858-3 0  9995
2 49107  87.9070  79.4274 0002043  71.6495 288.4859 13.17652032184948
ONEWEB-0330             
1 49108U 21075AK  25163.75406031  .00000020  00000+0  18639-4 0  9992
2 49108  87.9070  79.4449 0002167  75.2548 284.8823 13.17650218184977
ONEWEB-0292             
1 49186U 21083A   25163.93275410  .00000373  00000+0  98669-3 0  9993
2 49186  87.8975  33.6443 0001713  77.4265 282.7056 13.13469510182453
ONEWEB-0303             
1 49187U 21083B   25163.93814911  .00000091  00000+0  19777-3 0  9999
2 49187  87.9152  48.8346 0001769  73.1837 286.9489 13.18687205181319
ONEWEB-0306             
1 49188U 21083C   25163.92866575  .00000132  00000+0  30091-3 0  9990
2 49188  87.9151  48.8211 0001935  84.3107 275.8246 13.18687141181350
ONEWEB-0307             
1 49189U 21083D   25163.92683212  .00000281  00000+0  73381-3 0  9990
2 49189  87.8976  33.6493 0002116  86.6751 273.4620 13.13470400182456
ONEWEB-0320             
1 49190U 21083E   25163.93497871  .00000089  00000+0  19373-3 0  9994
2 49190  87.9152  48.8493 0001879  78.9763 281.1581 13.18688079181319
ONEWEB-0321             
1 49191U 21083F   25163.73506705  .00000028  00000+0  36767-4 0  9990
2 49191  87.9259 348.0195 0002018  98.7416 261.3946 13.20772205188065
ONEWEB-0322             
1 49192U 21083G   25163.92260550  .00000224  00000+0  57858-3 0  9998
2 49192  87.8974  33.6397 0001994  93.4687 266.6670 13.13472444182446
ONEWEB-0324             
1 49193U 21083H   25163.92075615 -.00000073  00000+0 -21789-3 0  9993
2 49193  87.9153  48.8311 0001971  75.7834 284.3517 13.18685362181337
ONEWEB-0325             
1 49194U 21083J   25163.92549419 -.00000179  00000+0 -48690-3 0  9999
2 49194  87.9153  48.8474 0001822  82.7468 277.3871 13.18685953181346
ONEWEB-0326             
1 49195U 21083K   25163.93988730  .00000063  00000+0  12780-3 0  9995
2 49195  87.9147  48.8346 0001662  68.7967 291.3342 13.18688357181337
ONEWEB-0327             
1 49196U 21083L   25163.93960519  .00000046  00000+0  83671-4 0  9990
2 49196  87.9151  48.8635 0001633  72.0161 288.1149 13.18686190181350
